{"type": "FeatureCollection", "features": [ {"type": "Feature", "properties": {"norad_id": 39019, "name": "PLEIADES 1B", "group": "resource", "lat": -1.6287199895709503, "lon": 68.15053877190955, "alt_km": 700.9788203809112, "timestamp": "2025-12-21T09:37:22.305298+00:00", "meta": {"OBJECT_NAME": "PLEIADES 1B", "OBJECT_ID": "2012-068A", "EPOCH": "2025-12-21T04:41:27.894336", "MEAN_MOTION": 14.58559647, "ECCENTRICITY": 0.0001165, "INCLINATION": 98.1792, "RA_OF_ASC_NODE": 67.714, "ARG_OF_PERICENTER": 86.1052, "MEAN_ANOMALY": 274.028, "EPHEMERIS_TYPE": 0, "CLASSIFICATION_TYPE": "U", "NORAD_CAT_ID": 39019, "ELEMENT_SET_NO": 999, "REV_AT_EPOCH": 69490, "BSTAR": 5.1943e-05, "MEAN_MOTION_DOT": 1.96e-06, "MEAN_MOTION_DDOT": 0}, "tle": {"line1": "1 39019U 12068A   25355.19546174  .00000196  00000+0  51943-4 0  9997", "line2": "2 39019  98.1792  67.7140 0001165  86.1052 274.0280 14.58559647694905"}}, "geometry": {"type": "Point", "coordinates": [68.15053877190955, -1.6287199895709503]}}, {"type": "Feature", "properties": {"norad_id": 39030, "name": "GOKTURK 2", "group": "resource", "lat": 14.453235356450243, "lon": -165.36742539843902, "alt_km": 645.199171930557, "timestamp": "2025-12-21T09:37:22.305308+00:00", "meta": {"OBJECT_NAME": "GOKTURK 2", "OBJECT_ID": "2012-073A", "EPOCH": "2025-12-21T04:40:24.950208", "MEAN_MOTION": 14.75301579, "ECCENTRICITY": 0.0001295, "INCLINATION": 97.6885, "RA_OF_ASC_NODE": 196.432, "ARG_OF_PERICENTER": 108.3178, "MEAN_ANOMALY": 251.8173, "EPHEMERIS_TYPE": 0, "CLASSIFICATION_TYPE": "U", "NORAD_CAT_ID": 39030, "ELEMENT_SET_NO": 999, "REV_AT_EPOCH": 69826, "BSTAR": 7.8232e-05, "MEAN_MOTION_DOT": 4.83e-06, "MEAN_MOTION_DDOT": 0}, "tle": {"line1": "1 39030U 12073A   25355.19473322  .00000483  00000+0  78232-4 0  9999", "line2": "2 39030  97.6885 196.4320 0001295 108.3178 251.8173 14.75301579698260"}}, "geometry": {"type": "Point", "coordinates": [-165.36742539843902, 14.453235356450243]}}, {"type": "Feature", "properties": {"norad_id": 39084, "name": "LANDSAT 8", "group": "resource", "lat": 55.46444823873451, "lon": -104.54979155876374, "alt_km": 696.5944631932498, "timestamp": "2025-12-21T09:37:22.305319+00:00", "meta": {"OBJECT_NAME": "LANDSAT 8", "OBJECT_ID": "2013-008A", "EPOCH": "2025-12-21T02:27:55.320768", "MEAN_MOTION": 14.57110319, "ECCENTRICITY": 0.0001076, "INCLINATION": 98.2061, "RA_OF_ASC_NODE": 63.0524, "ARG_OF_PERICENTER": 91.0858, "MEAN_ANOMALY": 269.0464, "EPHEMERIS_TYPE": 0, "CLASSIFICATION_TYPE": "U", "NORAD_CAT_ID": 39084, "ELEMENT_SET_NO": 999, "REV_AT_EPOCH": 67196, "BSTAR": 7.5817e-05, "MEAN_MOTION_DOT": 2.96e-06, "MEAN_MOTION_DDOT": 0}, "tle": {"line1": "1 39084U 13008A   25355.10272362  .00000296  00000+0  75817-4 0  9997", "line2": "2 39084  98.2061  63.0524 0001076  91.0858 269.0464 14.57110319671969"}}, "geometry": {"type": "Point", "coordinates": [-104.54979155876374, 55.46444823873451]}}, {"type": "Feature", "properties": {"norad_id": 39086, "name": "SARAL", "group": "resource", "lat": 69.33705333019823, "lon": 155.7076196609954, "alt_km": 773.7902040741319, "timestamp": "2025-12-21T09:37:22.305329+00:00", "meta": {"OBJECT_NAME": "SARAL", "OBJECT_ID": "2013-009A", "EPOCH": "2025-12-21T04:15:50.726016", "MEAN_MOTION": 14.32759687, "ECCENTRICITY": 0.0002962, "INCLINATION": 98.5502, "RA_OF_ASC_NODE": 178.9979, "ARG_OF_PERICENTER": 92.8929, "MEAN_ANOMALY": 267.2594, "EPHEMERIS_TYPE": 0, "CLASSIFICATION_TYPE": "U", "NORAD_CAT_ID": 39086, "ELEMENT_SET_NO": 999, "REV_AT_EPOCH": 67011, "BSTAR": 4.3711e-05, "MEAN_MOTION_DOT": 7.5e-07, "MEAN_MOTION_DDOT": 0}, "tle": {"line1": "1 39086U 13009A   25355.17767044  .00000075  00000+0  43711-4 0  9996", "line2": "2 39086  98.5502 178.9979 0002962  92.8929 267.2594 14.32759687670117"}}, "geometry": {"type": "Point", "coordinates": [155.7076196609954, 69.33705333019823]}}, {"type": "Feature", "properties": {"norad_id": 39150, "name": "GAOFEN-1", "group": "resource", "lat": 48.05823424873172, "lon": -105.16589571482466, "alt_km": 623.6045158931129, "timestamp": "2025-12-21T09:37:22.305339+00:00", "meta": {"OBJECT_NAME": "GAOFEN-1", "OBJECT_ID": "2013-018A", "EPOCH": "2025-12-21T04:09:07.741728", "MEAN_MOTION": 14.76493908, "ECCENTRICITY": 0.0018427, "INCLINATION": 97.9324, "RA_OF_ASC_NODE": 65.6835, "ARG_OF_PERICENTER": 117.4873, "MEAN_ANOMALY": 242.8212, "EPHEMERIS_TYPE": 0, "CLASSIFICATION_TYPE": "U", "NORAD_CAT_ID": 39150, "ELEMENT_SET_NO": 999, "REV_AT_EPOCH": 68197, "BSTAR": 0.00010024, "MEAN_MOTION_DOT": 6.49e-06, "MEAN_MOTION_DDOT": 0}, "tle": {"line1": "1 39150U 13018A   25355.17300627  .00000649  00000+0  10024-3 0  9995", "line2": "2 39150  97.9324  65.6835 0018427 117.4873 242.8212 14.76493908681973"}}, "geometry": {"type": "Point", "coordinates": [-105.16589571482466, 48.05823424873172]}}, {"type": "Feature", "properties": {"norad_id": 39160, "name": "VNREDSAT 1", "group": "resource", "lat": -12.614493136888898, "lon": -131.4166522462157, "alt_km": 682.0716802291199, "timestamp": "2025-12-21T09:37:22.305349+00:00", "meta": {"OBJECT_NAME": "VNREDSAT 1", "OBJECT_ID": "2013-021B", "EPOCH": "2025-12-21T03:49:42.894336", "MEAN_MOTION": 14.64934362, "ECCENTRICITY": 0.0001185, "INCLINATION": 97.9367, "RA_OF_ASC_NODE": 50.1395, "ARG_OF_PERICENTER": 82.2796, "MEAN_ANOMALY": 277.8542, "EPHEMERIS_TYPE": 0, "CLASSIFICATION_TYPE": "U", "NORAD_CAT_ID": 39160, "ELEMENT_SET_NO": 999, "REV_AT_EPOCH": 67422, "BSTAR": 8.8932e-05, "MEAN_MOTION_DOT": 4.3e-06, "MEAN_MOTION_DDOT": 0}, "tle": {"line1": "1 39160U 13021B   25355.15952424  .00000430  00000+0  88932-4 0  9998", "line2": "2 39160  97.9367  50.1395 0001185  82.2796 277.8542 14.64934362674222"}}, "geometry": {"type": "Point", "coordinates": [-131.4166522462157, -12.614493136888898]}}, {"type": "Feature", "properties": {"norad_id": 39227, "name": "ARIRANG-5 (KOMPSAT-5)", "group": "resource", "lat": 62.56027114738473, "lon": 164.64807243721813, "alt_km": 544.7517703376325, "timestamp": "2025-12-21T09:37:22.305360+00:00", "meta": {"OBJECT_NAME": "ARIRANG-5 (KOMPSAT-5)", "OBJECT_ID": "2013-042A", "EPOCH": "2025-12-21T04:33:10.949184", "MEAN_MOTION": 15.04540663, "ECCENTRICITY": 0.0003419, "INCLINATION": 97.6155, "RA_OF_ASC_NODE": 179.3724, "ARG_OF_PERICENTER": 36.0222, "MEAN_ANOMALY": 324.1234, "EPHEMERIS_TYPE": 0, "CLASSIFICATION_TYPE": "U", "NORAD_CAT_ID": 39227, "ELEMENT_SET_NO": 999, "REV_AT_EPOCH": 67709, "BSTAR": 0.00012322, "MEAN_MOTION_DOT": 1.666e-05, "MEAN_MOTION_DDOT": 0}, "tle": {"line1": "1 39227U 13042A   25355.18971006  .00001666  00000+0  12322-3 0  9996", "line2": "2 39227  97.6155 179.3724 0003419  36.0222 324.1234 15.04540663677095"}}, "geometry": {"type": "Point", "coordinates": [164.64807243721813, 62.56027114738473]}}, {"type": "Feature", "properties": {"norad_id": 39418, "name": "SKYSAT-A", "group": "resource", "lat": -61.04499264455645, "lon": 58.9499444071889, "alt_km": 539.0440265144343, "timestamp": "2025-12-21T09:37:22.305370+00:00", "meta": {"OBJECT_NAME": "SKYSAT-A", "OBJECT_ID": "2013-066C", "EPOCH": "2025-12-21T01:57:13.302144", "MEAN_MOTION": 15.11659426, "ECCENTRICITY": 0.0021349, "INCLINATION": 97.4095, "RA_OF_ASC_NODE": 45.0363, "ARG_OF_PERICENTER": 206.3198, "MEAN_ANOMALY": 153.695, "EPHEMERIS_TYPE": 0, "CLASSIFICATION_TYPE": "U", "NORAD_CAT_ID": 39418, "ELEMENT_SET_NO": 999, "REV_AT_EPOCH": 66156, "BSTAR": 0.00016231, "MEAN_MOTION_DOT": 2.711e-05, "MEAN_MOTION_DDOT": 0}, "tle": {"line1": "1 39418U 13066C   25355.08140396  .00002711  00000+0  16231-3 0  9998", "line2": "2 39418  97.4095  45.0363 0021349 206.3198 153.6950 15.11659426661563"}}, "geometry": {"type": "Point", "coordinates": [58.9499444071889, -61.04499264455645]}}, {"type": "Feature", "properties": {"norad_id": 39419, "name": "DUBAISAT-2", "group": "resource", "lat": -20.602856767964017, "lon": -11.64130980342337, "alt_km": 541.9888095149954, "timestamp": "2025-12-21T09:37:22.305380+00:00", "meta": {"OBJECT_NAME": "DUBAISAT-2", "OBJECT_ID": "2013-066D", "EPOCH": "2025-12-21T03:20:47.203872", "MEAN_MOTION": 15.08425326, "ECCENTRICITY": 0.001005, "INCLINATION": 97.4439, "RA_OF_ASC_NODE": 345.2879, "ARG_OF_PERICENTER": 288.7135, "MEAN_ANOMALY": 71.3002, "EPHEMERIS_TYPE": 0, "CLASSIFICATION_TYPE": "U", "NORAD_CAT_ID": 39419, "ELEMENT_SET_NO": 999, "REV_AT_EPOCH": 65953, "BSTAR": 0.00012437, "MEAN_MOTION_DOT": 1.876e-05, "MEAN_MOTION_DDOT": 0}, "tle": {"line1": "1 39419U 13066D   25355.13943523  .00001876  00000+0  12437-3 0  9993", "line2": "2 39419  97.4439 345.2879 0010050 288.7135  71.3002 15.08425326659539"}}, "geometry": {"type": "Point", "coordinates": [-11.64130980342337, -20.602856767964017]}}, {"type": "Feature", "properties": {"norad_id": 39574, "name": "GPM-CORE", "group": "resource", "lat": -6.95104461319631, "lon": 6.9432611466820315, "alt_km": 432.4230280726224, "timestamp": "2025-12-21T09:37:22.305390+00:00", "meta": {"OBJECT_NAME": "GPM-CORE", "OBJECT_ID": "2014-009C", "EPOCH": "2025-12-21T02:35:49.841664", "MEAN_MOTION": 15.44582869, "ECCENTRICITY": 0.0009325, "INCLINATION": 64.9718, "RA_OF_ASC_NODE": 184.6576, "ARG_OF_PERICENTER": 248.5054, "MEAN_ANOMALY": 111.5092, "EPHEMERIS_TYPE": 0, "CLASSIFICATION_TYPE": "U", "NORAD_CAT_ID": 39574, "ELEMENT_SET_NO": 999, "REV_AT_EPOCH": 67030, "BSTAR": 0.00012355, "MEAN_MOTION_DOT": 5.529e-05, "MEAN_MOTION_DDOT": 0}, "tle": {"line1": "1 39574U 14009C   25355.10821576  .00005529  00000+0  12355-3 0  9991", "line2": "2 39574  64.9718 184.6576 0009325 248.5054 111.5092 15.44582869670306"}}, "geometry": {"type": "Point", "coordinates": [6.9432611466820315, -6.95104461319631]}}]}